[
    {
        "OBJECT_NAME": "NETSAT-2",
        "OBJECT_ID": "2020-068X",
        "EPOCH": "2023-01-02T14:58:51.934944",
        "MEAN_MOTION": 15.04727981,
        "ECCENTRICITY": 0.0009903,
        "INCLINATION": 97.7427,
        "RA_OF_ASC_NODE": 307.1859,
        "ARG_OF_PERICENTER": 45.1214,
        "MEAN_ANOMALY": 315.0827,
        "EPHEMERIS_TYPE": 0,
        "CLASSIFICATION_TYPE": "U",
        "NORAD_CAT_ID": 46507,
        "ELEMENT_SET_NO": 999,
        "REV_AT_EPOCH": 12393,
        "BSTAR": 0.00036411,
        "MEAN_MOTION_DOT": 5.072e-5,
        "MEAN_MOTION_DDOT": 0
    },
    {
        "OBJECT_NAME": "SAI-1 NANOCONNECT-2",
        "OBJECT_ID": "2021-015C",
        "EPOCH": "2023-01-02T11:44:14.512704",
        "MEAN_MOTION": 15.33216986,
        "ECCENTRICITY": 0.0010913,
        "INCLINATION": 97.4069,
        "RA_OF_ASC_NODE": 83.9519,
        "ARG_OF_PERICENTER": 105.1115,
        "MEAN_ANOMALY": 255.1336,
        "EPHEMERIS_TYPE": 0,
        "CLASSIFICATION_TYPE": "U",
        "NORAD_CAT_ID": 47701,
        "ELEMENT_SET_NO": 999,
        "REV_AT_EPOCH": 10264,
        "BSTAR": 0.00073679,
        "MEAN_MOTION_DOT": 0.00023657,
        "MEAN_MOTION_DDOT": 0
    },
    {
        "OBJECT_NAME": "WILDTRACKCUBE-SIMBA",
        "OBJECT_ID": "2021-022K",
        "EPOCH": "2023-01-02T12:32:03.383232",
        "MEAN_MOTION": 15.08948606,
        "ECCENTRICITY": 0.0020136,
        "INCLINATION": 97.5143,
        "RA_OF_ASC_NODE": 262.7702,
        "ARG_OF_PERICENTER": 180.7586,
        "MEAN_ANOMALY": 284.7915,
        "EPHEMERIS_TYPE": 0,
        "CLASSIFICATION_TYPE": "U",
        "NORAD_CAT_ID": 47941,
        "ELEMENT_SET_NO": 999,
        "REV_AT_EPOCH": 9799,
        "BSTAR": 0.00040558,
        "MEAN_MOTION_DOT": 6.371e-5,
        "MEAN_MOTION_DDOT": 0
    },
    {
        "OBJECT_NAME": "BEESAT-6",
        "OBJECT_ID": "2021-022AB",
        "EPOCH": "2023-01-02T11:03:57.684384",
        "MEAN_MOTION": 15.1188889,
        "ECCENTRICITY": 0.0018528,
        "INCLINATION": 97.5127,
        "RA_OF_ASC_NODE": 263.3358,
        "ARG_OF_PERICENTER": 179.1915,
        "MEAN_ANOMALY": 180.9349,
        "EPHEMERIS_TYPE": 0,
        "CLASSIFICATION_TYPE": "U",
        "NORAD_CAT_ID": 47957,
        "ELEMENT_SET_NO": 999,
        "REV_AT_EPOCH": 9783,
        "BSTAR": 0.00080656,
        "MEAN_MOTION_DOT": 0.00013813,
        "MEAN_MOTION_DDOT": 0
    },
    {
        "OBJECT_NAME": "SMOG-1",
        "OBJECT_ID": "2021-022AJ",
        "EPOCH": "2023-01-02T10:46:05.969280",
        "MEAN_MOTION": 15.13475171,
        "ECCENTRICITY": 0.0017235,
        "INCLINATION": 97.5154,
        "RA_OF_ASC_NODE": 264.8554,
        "ARG_OF_PERICENTER": 165.6154,
        "MEAN_ANOMALY": 194.5571,
        "EPHEMERIS_TYPE": 0,
        "CLASSIFICATION_TYPE": "U",
        "NORAD_CAT_ID": 47964,
        "ELEMENT_SET_NO": 999,
        "REV_AT_EPOCH": 9694,
        "BSTAR": 0.0007495,
        "MEAN_MOTION_DOT": 0.00013404,
        "MEAN_MOTION_DDOT": 0
    },
    {
        "OBJECT_NAME": "MMSATS-1",
        "OBJECT_ID": "1998-067SJ",
        "EPOCH": "2023-01-02T11:18:19.622016",
        "MEAN_MOTION": 15.74247821,
        "ECCENTRICITY": 0.0003313,
        "INCLINATION": 51.6364,
        "RA_OF_ASC_NODE": 36.726,
        "ARG_OF_PERICENTER": 12.9259,
        "MEAN_ANOMALY": 135.4158,
        "EPHEMERIS_TYPE": 0,
        "CLASSIFICATION_TYPE": "U",
        "NORAD_CAT_ID": 47976,
        "ELEMENT_SET_NO": 999,
        "REV_AT_EPOCH": 10142,
        "BSTAR": 0.00052023,
        "MEAN_MOTION_DOT": 0.00076593,
        "MEAN_MOTION_DDOT": 0
    },
    {
        "OBJECT_NAME": "BCCSAT-1",
        "OBJECT_ID": "2021-022AK",
        "EPOCH": "2023-01-02T05:33:57.552768",
        "MEAN_MOTION": 15.12270651,
        "ECCENTRICITY": 0.0014264,
        "INCLINATION": 97.5153,
        "RA_OF_ASC_NODE": 263.978,
        "ARG_OF_PERICENTER": 164.6179,
        "MEAN_ANOMALY": 195.5488,
        "EPHEMERIS_TYPE": 0,
        "CLASSIFICATION_TYPE": "U",
        "NORAD_CAT_ID": 48041,
        "ELEMENT_SET_NO": 999,
        "REV_AT_EPOCH": 9684,
        "BSTAR": 0.00066042,
        "MEAN_MOTION_DOT": 0.00011396,
        "MEAN_MOTION_DDOT": 0
    },
    {
        "OBJECT_NAME": "BEESAT-5",
        "OBJECT_ID": "2021-022AM",
        "EPOCH": "2023-01-02T11:31:42.534624",
        "MEAN_MOTION": 15.12432321,
        "ECCENTRICITY": 0.0018468,
        "INCLINATION": 97.5094,
        "RA_OF_ASC_NODE": 263.4078,
        "ARG_OF_PERICENTER": 178.5436,
        "MEAN_ANOMALY": 181.5852,
        "EPHEMERIS_TYPE": 0,
        "CLASSIFICATION_TYPE": "U",
        "NORAD_CAT_ID": 48083,
        "ELEMENT_SET_NO": 999,
        "REV_AT_EPOCH": 9697,
        "BSTAR": 0.00082392,
        "MEAN_MOTION_DOT": 0.00014327,
        "MEAN_MOTION_DDOT": 0
    },
    {
        "OBJECT_NAME": "BEESAT-7",
        "OBJECT_ID": "2021-022AN",
        "EPOCH": "2023-01-02T10:32:50.868096",
        "MEAN_MOTION": 15.12134238,
        "ECCENTRICITY": 0.0018568,
        "INCLINATION": 97.5122,
        "RA_OF_ASC_NODE": 263.352,
        "ARG_OF_PERICENTER": 178.0701,
        "MEAN_ANOMALY": 182.0605,
        "EPHEMERIS_TYPE": 0,
        "CLASSIFICATION_TYPE": "U",
        "NORAD_CAT_ID": 48084,
        "ELEMENT_SET_NO": 999,
        "REV_AT_EPOCH": 9655,
        "BSTAR": 0.00076283,
        "MEAN_MOTION_DOT": 0.00013149,
        "MEAN_MOTION_DDOT": 0
    },
    {
        "OBJECT_NAME": "BEESAT-8",
        "OBJECT_ID": "2021-022AP",
        "EPOCH": "2023-01-01T16:25:20.419968",
        "MEAN_MOTION": 15.11300363,
        "ECCENTRICITY": 0.0018811,
        "INCLINATION": 97.5123,
        "RA_OF_ASC_NODE": 262.5295,
        "ARG_OF_PERICENTER": 182.0416,
        "MEAN_ANOMALY": 178.0741,
        "EPHEMERIS_TYPE": 0,
        "CLASSIFICATION_TYPE": "U",
        "NORAD_CAT_ID": 48085,
        "ELEMENT_SET_NO": 999,
        "REV_AT_EPOCH": 9699,
        "BSTAR": 0.00052464,
        "MEAN_MOTION_DOT": 8.811e-5,
        "MEAN_MOTION_DDOT": 0
    },
    {
        "OBJECT_NAME": "LEDSAT",
        "OBJECT_ID": "2021-073D",
        "EPOCH": "2023-01-02T10:51:45.419328",
        "MEAN_MOTION": 15.10533122,
        "ECCENTRICITY": 0.0025271,
        "INCLINATION": 97.5055,
        "RA_OF_ASC_NODE": 76.3923,
        "ARG_OF_PERICENTER": 335.3922,
        "MEAN_ANOMALY": 24.61,
        "EPHEMERIS_TYPE": 0,
        "CLASSIFICATION_TYPE": "U",
        "NORAD_CAT_ID": 49069,
        "ELEMENT_SET_NO": 999,
        "REV_AT_EPOCH": 7585,
        "BSTAR": 0.00039398,
        "MEAN_MOTION_DOT": 6.481e-5,
        "MEAN_MOTION_DDOT": 0
    },
    {
        "OBJECT_NAME": "HSU-SAT1",
        "OBJECT_ID": "1998-067UB",
        "EPOCH": "2023-01-02T11:42:54.546912",
        "MEAN_MOTION": 15.67374765,
        "ECCENTRICITY": 0.0007518,
        "INCLINATION": 51.6363,
        "RA_OF_ASC_NODE": 61.187,
        "ARG_OF_PERICENTER": 321.5455,
        "MEAN_ANOMALY": 38.5005,
        "EPHEMERIS_TYPE": 0,
        "CLASSIFICATION_TYPE": "U",
        "NORAD_CAT_ID": 53462,
        "ELEMENT_SET_NO": 999,
        "REV_AT_EPOCH": 2231,
        "BSTAR": 0.00081685,
        "MEAN_MOTION_DOT": 0.00090589,
        "MEAN_MOTION_DDOT": 0
    }
]