NETSAT-2                
1 46507U 20068X   23002.62421221  .00005072  00000+0  36411-3 0  9996
2 46507  97.7427 307.1859 0009903  45.1214 315.0827 15.04727981123939
SAI-1 NANOCONNECT-2     
1 47701U 21015C   23002.48905686  .00023657  00000+0  73679-3 0  9998
2 47701  97.4069  83.9519 0010913 105.1115 255.1336 15.33216986102641
WILDTRACKCUBE-SIMBA     
1 47941U 21022K   23002.52226138  .00006371  00000+0  40558-3 0  9999
2 47941  97.5143 262.7702 0020136 180.7586 284.7915 15.08948606 97996
BEESAT-6                
1 47957U 21022AB  23002.46108431  .00013813  00000+0  80656-3 0  9996
2 47957  97.5127 263.3358 0018528 179.1915 180.9349 15.11888890 97832
SMOG-1                  
1 47964U 21022AJ  23002.44868020  .00013404  00000+0  74950-3 0  9995
2 47964  97.5154 264.8554 0017235 165.6154 194.5571 15.13475171 96948
MMSATS-1                
1 47976U 98067SJ  23002.47106044  .00076593  00000+0  52023-3 0  9990
2 47976  51.6364  36.7260 0003313  12.9259 135.4158 15.74247821101428
BCCSAT-1                
1 48041U 21022AK  23002.23191612  .00011396  00000+0  66042-3 0  9996
2 48041  97.5153 263.9780 0014264 164.6179 195.5488 15.12270651 96842
BEESAT-5                
1 48083U 21022AM  23002.48035341  .00014327  00000+0  82392-3 0  9998
2 48083  97.5094 263.4078 0018468 178.5436 181.5852 15.12432321 96975
BEESAT-7                
1 48084U 21022AN  23002.43947764  .00013149  00000+0  76283-3 0  9998
2 48084  97.5122 263.3520 0018568 178.0701 182.0605 15.12134238 96552
BEESAT-8                
1 48085U 21022AP  23001.68426412  .00008811  00000+0  52464-3 0  9992
2 48085  97.5123 262.5295 0018811 182.0416 178.0741 15.11300363 96990
LEDSAT                  
1 49069U 21073D   23002.45260902  .00006481  00000+0  39398-3 0  9999
2 49069  97.5055  76.3923 0025271 335.3922  24.6100 15.10533122 75856
HSU-SAT1                
1 53462U 98067UB  23002.48813133  .00090589  00000+0  81685-3 0  9999
2 53462  51.6363  61.1870 0007518 321.5455  38.5005 15.67374765 22315
